GLOBALSTAR M075         
1 37192U 10054E   24201.91097591 -.00000096  00000+0  42825-4 0  9992
2 37192  51.9946 113.2451 0000499  47.6830  28.6922 12.62261791634048
GLOBALSTAR M073         
1 37193U 10054F   24202.24887390 -.00000092  00000+0  62954-4 0  9995
2 37193  52.0078  25.7832 0000844  74.6868  96.7969 12.62267160635967
GLOBALSTAR M083         
1 37739U 11033A   24202.10329881 -.00000095  00000+0  50011-4 0  9994
2 37739  51.9881 335.4103 0000665 120.0289  51.3073 12.62262401605276
GLOBALSTAR M088         
1 37740U 11033B   24201.83939267 -.00000064  00000+0  22101-3 0  9994
2 37740  51.9714 241.9858 0000328 178.8020 352.8723 12.62265388600421
GLOBALSTAR M085         
1 37742U 11033D   24201.90175675 -.00000107  00000+0 -16437-4 0  9994
2 37742  51.9853 156.0869 0000100 354.4133 100.7109 12.62263486601730
GLOBALSTAR M081         
1 37743U 11033E   24201.62832894 -.00000118  00000+0 -77433-4 0  9992
2 37743  51.9942 159.5021 0000324 326.7476 204.5942 12.62267003601847
GLOBALSTAR M089         
1 37744U 11033F   24201.96511806 -.00000103  00000+0  25271-5 0  9994
2 37744  51.9928 112.7700 0000850  35.1138  45.9231 12.62265999602736
